[{"OBJECT_NAME":"STARLINK-32412","OBJECT_ID":"2024-193V","EPOCH":"2026-03-09T08:49:06.450528","MEAN_MOTION":15.30208553,"ECCENTRICITY":0.00013908,"INCLINATION":53.1592,"RA_OF_ASC_NODE":92.7577,"ARG_OF_PERICENTER":103.1881,"MEAN_ANOMALY":256.9275,"EPHEMERIS_TYPE":0,"CLASSIFICATION_TYPE":"U","NORAD_CAT_ID":61680,"ELEMENT_SET_NO":999,"REV_AT_EPOCH":7647,"BSTAR":0.00015131734,"MEAN_MOTION_DOT":4.126e-5,"MEAN_MOTION_DDOT":0},{"OBJECT_NAME":"OBJECT D","OBJECT_ID":"2021-102D","EPOCH":"2026-03-09T14:47:14.426880","MEAN_MOTION":15.2846442,"ECCENTRICITY":0.0009157,"INCLINATION":97.3342,"RA_OF_ASC_NODE":112.2633,"ARG_OF_PERICENTER":187.6206,"MEAN_ANOMALY":172.4897,"EPHEMERIS_TYPE":0,"CLASSIFICATION_TYPE":"U","NORAD_CAT_ID":49398,"ELEMENT_SET_NO":999,"REV_AT_EPOCH":23880,"BSTAR":0.00046011,"MEAN_MOTION_DOT":0.00012697,"MEAN_MOTION_DDOT":0}]
